0 COSMOS 2251 DEB
1 35729U 93036ARA 24020.99260479  .00018008  00000-0  27552-2 0  9991
2 35729  74.0301 127.4173 0025713  76.5695  42.2872 14.73485319778679
0 COSMOS 2251 DEB
1 35759U 93036ARD 24019.54882687  .00002140  00000-0  42643-3 0  9993
2 35759  74.0379 104.7916 0082449  39.8991 320.8195 14.60508616784267
0 COSMOS 2251 DEB
1 35763U 93036ARH 24014.29157587  .00034607  00000-0  52350-2 0  9997
2 35763  73.8497 228.8983 0055156 223.7608 255.5553 14.73021991514663
0 COSMOS 2251 DEB
1 35764U 93036ARJ 24017.32207311  .00007592  00000-0  16153-2 0  9990
2 35764  74.0406 247.2705 0034514 186.3173 173.7562 14.58794406558468
0 COSMOS 2251 DEB
1 35775U 93036ARV 24019.47344130  .00032196  00000-0  37308-2 0  9994
2 35775  74.0253  74.9554 0027929  15.5804  45.1899 14.85040106782042
0 COSMOS 2251 DEB
1 35777U 93036ARX 24019.89552711  .00002068  00000-0  20922-2 0  9997
2 35777  73.7747 348.4734 0455922 344.7642  42.4594 13.39921973704990
0 COSMOS 2251 DEB
1 35786U 93036ASG 24021.72866270  .00006094  00000-0  14388-2 0  9992
2 35786  74.0205 284.3449 0046133 221.0733 138.6954 14.53745605633220
0 COSMOS 2251 DEB
1 35789U 93036ASK 24020.67244012  .00000543  00000-0  19714-3 0  9994
2 35789  74.0390 113.7852 0048330  22.2061 338.1169 14.35020529512960
0 COSMOS 2251 DEB
1 35796U 93036ASS 24017.39358910  .00018050  00000-0  41302-2 0  9999
2 35796  74.0042  42.3603 0043083 305.3547  54.3592 14.55054419615909
0 COSMOS 2251 DEB
1 35825U 93036ASX 24015.19376883  .00003218  00000-0  24627-2 0  9998
2 35825  74.1122 205.1268 0367918 106.2280 257.9641 13.66176666729649
0 COSMOS 2251 DEB
1 35829U 93036ATB 24020.58427254  .00010749  00000-0  25441-2 0  9992
2 35829  74.0351 350.4120 0018197 233.6098 126.3387 14.54050500777646
0 COSMOS 2251 DEB
1 35830U 93036ATC 24006.93814612  .00003046  00000-0  14395-2 0  9993
2 35830  73.8741 102.1556 0133057 208.7822 150.5935 14.15626930746562
0 COSMOS 2251 DEB
1 35834U 93036ATG 24020.65877475  .00000128  00000-0  78776-4 0  9991
2 35834  73.9316  95.1666 0111346  36.3541 119.4172 14.11908027564918
0 COSMOS 2251 DEB
1 35835U 93036ATH 24001.72727888  .00002636  00000-0  18432-2 0  9998
2 35835  74.0689  19.8533 0310051 323.6634  34.3781 13.78303960518859
0 COSMOS 2251 DEB
1 35837U 93036ATK 24020.05789562  .00004472  00000-0  34924-2 0  9998
2 35837  73.7404 270.2026 0457034 287.6776 135.9867 13.52724036485704
0 COSMOS 2251 DEB
1 35839U 93036ATM 24021.38817427  .00016042  00000-0  25841-2 0  9993
2 35839  74.2381 264.5132 0028707 270.8128 204.1626 14.71215210782271
0 COSMOS 2251 DEB
1 35840U 93036ATN 24016.29384018  .00009689  00000-0  37234-2 0  9992
2 35840  73.9385 356.9888 0131660  48.5374 312.6989 14.25839740753211
0 COSMOS 2251 DEB
1 35883U 93036ATW 24020.18286784  .00001623  00000-0  42706-3 0  9994
2 35883  74.0257 289.9729 0089092 228.9274 285.3072 14.47575333523539
0 COSMOS 2251 DEB
1 35884U 93036ATX 24002.83087088  .00003545  00000-0  16594-2 0  9993
2 35884  73.9927 172.3061 0125303 118.6788 242.7019 14.16518246122716
0 COSMOS 2251 DEB
1 35885U 93036ATY 24018.98374952  .00001574  00000-0  55753-3 0  9997
2 35885  74.0296 129.9669 0024589  18.1357 342.0667 14.35221368550546
0 COSMOS 2251 DEB
1 35890U 93036AUD 24012.64665557  .00008412  00000-0  25185-2 0  9997
2 35890  73.9440 124.4865 0070448  41.7084 318.9412 14.41529692751678
