OBJECT_NAME,OBJECT_ID,EPOCH,MEAN_MOTION,ECCENTRICITY,INCLINATION,RA_OF_ASC_NODE,ARG_OF_PERICENTER,MEAN_ANOMALY,EPHEMERIS_TYPE,CLASSIFICATION_TYPE,NORAD_CAT_ID,ELEMENT_SET_NO,REV_AT_EPOCH,BSTAR,MEAN_MOTION_DOT,MEAN_MOTION_DDOT
COSMOS 2251 DEB,1993-036ARA,2024-01-20T23:49:21.053856,14.73485319,.0025713,74.0301,127.4173,76.5695,42.2872,0,U,35729,999,77867,.27552E-2,.18008E-3,0
COSMOS 2251 DEB,1993-036ARD,2024-01-19T13:10:18.641568,14.60508616,.0082449,74.0379,104.7916,39.8991,320.8195,0,U,35759,999,78426,.42643E-3,.214E-4,0
COSMOS 2251 DEB,1993-036ARH,2024-01-14T06:59:52.155168,14.73021991,.0055156,73.8497,228.8983,223.7608,255.5553,0,U,35763,999,51466,.5235E-2,.34607E-3,0
COSMOS 2251 DEB,1993-036ARJ,2024-01-17T07:43:47.116704,14.58794406,.0034514,74.0406,247.2705,186.3173,173.7562,0,U,35764,999,55846,.16153E-2,.7592E-4,0
COSMOS 2251 DEB,1993-036ARV,2024-01-19T11:21:45.328320,14.85040106,.0027929,74.0253,74.9554,15.5804,45.1899,0,U,35775,999,78204,.37308E-2,.32196E-3,0
COSMOS 2251 DEB,1993-036ARX,2024-01-19T21:29:33.542304,13.39921973,.0455922,73.7747,348.4734,344.7642,42.4594,0,U,35777,999,70499,.20922E-2,.2068E-4,0
COSMOS 2251 DEB,1993-036ASG,2024-01-21T17:29:16.457280,14.53745605,.0046133,74.0205,284.3449,221.0733,138.6954,0,U,35786,999,63322,.14388E-2,.6094E-4,0
COSMOS 2251 DEB,1993-036ASK,2024-01-20T16:08:18.826368,14.35020529,.004833,74.0390,113.7852,22.2061,338.1169,0,U,35789,999,51296,.19714E-3,.543E-5,0
COSMOS 2251 DEB,1993-036ASS,2024-01-17T09:26:46.098240,14.55054419,.0043083,74.0042,42.3603,305.3547,54.3592,0,U,35796,999,61590,.41302E-2,.1805E-3,0
COSMOS 2251 DEB,1993-036ASX,2024-01-15T04:39:01.626912,13.66176666,.0367918,74.1122,205.1268,106.2280,257.9641,0,U,35825,999,72964,.24627E-2,.3218E-4,0
COSMOS 2251 DEB,1993-036ATB,2024-01-20T14:01:21.147456,14.54050500,.0018197,74.0351,350.4120,233.6098,126.3387,0,U,35829,999,77764,.25441E-2,.10749E-3,0
COSMOS 2251 DEB,1993-036ATC,2024-01-06T22:30:55.824768,14.15626930,.0133057,73.8741,102.1556,208.7822,150.5935,0,U,35830,999,74656,.14395E-2,.3046E-4,0
COSMOS 2251 DEB,1993-036ATG,2024-01-20T15:48:38.138400,14.11908027,.0111346,73.9316,95.1666,36.3541,119.4172,0,U,35834,999,56491,.78776E-4,.128E-5,0
COSMOS 2251 DEB,1993-036ATH,2024-01-01T17:27:16.895232,13.78303960,.0310051,74.0689,19.8533,323.6634,34.3781,0,U,35835,999,51885,.18432E-2,.2636E-4,0
COSMOS 2251 DEB,1993-036ATK,2024-01-20T01:23:22.181568,13.52724036,.0457034,73.7404,270.2026,287.6776,135.9867,0,U,35837,999,48570,.34924E-2,.4472E-4,0
COSMOS 2251 DEB,1993-036ATM,2024-01-21T09:18:58.256928,14.71215210,.0028707,74.2381,264.5132,270.8128,204.1626,0,U,35839,999,78227,.25841E-2,.16042E-3,0
COSMOS 2251 DEB,1993-036ATN,2024-01-16T07:03:07.791552,14.25839740,.013166,73.9385,356.9888,48.5374,312.6989,0,U,35840,999,75321,.37234E-2,.9689E-4,0
COSMOS 2251 DEB,1993-036ATW,2024-01-20T04:23:19.781376,14.47575333,.0089092,74.0257,289.9729,228.9274,285.3072,0,U,35883,999,52353,.42706E-3,.1623E-4,0
COSMOS 2251 DEB,1993-036ATX,2024-01-02T19:56:27.244032,14.16518246,.0125303,73.9927,172.3061,118.6788,242.7019,0,U,35884,999,12271,.16594E-2,.3545E-4,0
COSMOS 2251 DEB,1993-036ATY,2024-01-18T23:36:35.958528,14.35221368,.0024589,74.0296,129.9669,18.1357,342.0667,0,U,35885,999,55054,.55753E-3,.1574E-4,0
COSMOS 2251 DEB,1993-036AUD,2024-01-12T15:31:11.041248,14.41529692,.0070448,73.9440,124.4865,41.7084,318.9412,0,U,35890,999,75167,.25185E-2,.8412E-4,0
